start=new Date('2023-03-26T00:00:00.000Z').valueOf();
sats=[{"OBJECT_NAME":"STARLINK-3233","MEAN_ANOMALY":"268.0259","EPHEMERIS_TYPE":"0","COUNTRY_CODE":"US","SEMIMAJOR_AXIS":"6917.967","NORAD_CAT_ID":"49746","CENTER_NAME":"EARTH","MEAN_MOTION":"15.08811524","CLASSIFICATION_TYPE":"U","FILE":"3871104","RCS_SIZE":"LARGE","PERIAPSIS":"538.977","BSTAR":"-0.00045086000000","TIME_SYSTEM":"UTC","MEAN_ELEMENT_THEORY":"SGP4","REV_AT_EPOCH":"7252","SITE":"AFETR","REF_FRAME":"TEME","TLE_LINE1":"1 49746U 21115Y   23084.93253488 -.00007450  00000-0 -45086-3 0  9993","INCLINATION":"53.2170","RA_OF_ASC_NODE":"316.3378","GP_ID":"228870234","MEAN_MOTION_DOT":"-0.00007450","OBJECT_TYPE":"PAYLOAD","APOAPSIS":"540.688","PERIOD":"95.439","ECCENTRICITY":"0.00012370","EPOCH":"2023-03-25T22:22:51.013632","ARG_OF_PERICENTER":"92.0875","DECAY_DATE":null,"OBJECT_ID":"2021-115Y","ELEMENT_SET_NO":"999","TLE_LINE2":"2 49746  53.2170 316.3378 0001237  92.0875 268.0259 15.08811524 72528","LAUNCH_DATE":"2021-12-02","MEAN_MOTION_DDOT":"0.0000000000000"},{"ARG_OF_PERICENTER":"88.2476","EPOCH":"2023-03-25T22:06:55.700064","DECAY_DATE":null,"OBJECT_ID":"2021-115Z","ELEMENT_SET_NO":"999","TLE_LINE2":"2 49747  53.2160 316.3898 0001262  88.2476 271.8661 15.08795544 72529","LAUNCH_DATE":"2021-12-02","MEAN_MOTION_DDOT":"0.0000000000000","REF_FRAME":"TEME","TLE_LINE1":"1 49747U 21115Z   23084.92147801  .00011608  00000-0  74712-3 0  9990","INCLINATION":"53.2160","RA_OF_ASC_NODE":"316.3898","GP_ID":"228870986","MEAN_MOTION_DOT":"0.00011608","OBJECT_TYPE":"PAYLOAD","APOAPSIS":"540.754","ECCENTRICITY":"0.00012620","PERIOD":"95.440","CENTER_NAME":"EARTH","MEAN_MOTION":"15.08795544","CLASSIFICATION_TYPE":"U","FILE":"3871104","RCS_SIZE":"LARGE","PERIAPSIS":"539.008","BSTAR":"0.00074712000000","TIME_SYSTEM":"UTC","MEAN_ELEMENT_THEORY":"SGP4","REV_AT_EPOCH":"7252","SITE":"AFETR","OBJECT_NAME":"STARLINK-3247","MEAN_ANOMALY":"271.8661","EPHEMERIS_TYPE":"0","COUNTRY_CODE":"US","NORAD_CAT_ID":"49747","SEMIMAJOR_AXIS":"6918.016"},{"MEAN_ELEMENT_THEORY":"SGP4","TIME_SYSTEM":"UTC","BSTAR":"0.00065160000000","SITE":"AFETR","REV_AT_EPOCH":"7253","CENTER_NAME":"EARTH","FILE":"3871104","RCS_SIZE":"LARGE","PERIAPSIS":"539.134","MEAN_MOTION":"15.08793197","CLASSIFICATION_TYPE":"U","COUNTRY_CODE":"US","SEMIMAJOR_AXIS":"6918.023","NORAD_CAT_ID":"49748","EPHEMERIS_TYPE":"0","OBJECT_NAME":"STARLINK-3248","MEAN_ANOMALY":"270.0661","LAUNCH_DATE":"2021-12-02","TLE_LINE2":"2 49748  53.2144 316.3070 0001091  90.0456 270.0661 15.08793197 72537","MEAN_MOTION_DDOT":"0.0000000000000","DECAY_DATE":null,"ARG_OF_PERICENTER":"90.0456","EPOCH":"2023-03-25T22:33:26.160768","ELEMENT_SET_NO":"999","OBJECT_ID":"2021-115AA","MEAN_MOTION_DOT":"0.00010084","OBJECT_TYPE":"PAYLOAD","ECCENTRICITY":"0.00010910","PERIOD":"95.441","APOAPSIS":"540.643","REF_FRAME":"TEME","GP_ID":"228870736","TLE_LINE1":"1 49748U 21115AA  23084.93988612  .00010084  00000-0  65160-3 0  9999","INCLINATION":"53.2144","RA_OF_ASC_NODE":"316.3070"},{"CLASSIFICATION_TYPE":"U","MEAN_MOTION":"15.08804924","PERIAPSIS":"539.046","RCS_SIZE":"LARGE","FILE":"3871104","CENTER_NAME":"EARTH","SITE":"AFETR","REV_AT_EPOCH":"7252","BSTAR":"-0.00092447000000","TIME_SYSTEM":"UTC","MEAN_ELEMENT_THEORY":"SGP4","MEAN_ANOMALY":"273.6266","OBJECT_NAME":"STARLINK-3250","EPHEMERIS_TYPE":"0","SEMIMAJOR_AXIS":"6917.988","NORAD_CAT_ID":"49749","COUNTRY_CODE":"US","OBJECT_ID":"2021-115AB","ELEMENT_SET_NO":"999","ARG_OF_PERICENTER":"86.4859","EPOCH":"2023-03-25T22:17:31.458912","DECAY_DATE":null,"MEAN_MOTION_DDOT":"0.0000000000000","TLE_LINE2":"2 49749  53.2163 316.3549 0001166  86.4859 273.6266 15.08804924 72529","LAUNCH_DATE":"2021-12-02","INCLINATION":"53.2163","RA_OF_ASC_NODE":"316.3549","TLE_LINE1":"1 49749U 21115AB  23084.92883633 -.00014956  00000-0 -92447-3 0  9998","GP_ID":"228869484","REF_FRAME":"TEME","APOAPSIS":"540.659","ECCENTRICITY":"0.00011660","PERIOD":"95.440","MEAN_MOTION_DOT":"-0.00014956","OBJECT_TYPE":"PAYLOAD"},{"PERIAPSIS":"539.163","RCS_SIZE":"LARGE","FILE":"3871045","CLASSIFICATION_TYPE":"U","MEAN_MOTION":"15.08811895","CENTER_NAME":"EARTH","SITE":"AFETR","REV_AT_EPOCH":"7363","MEAN_ELEMENT_THEORY":"SGP4","TIME_SYSTEM":"UTC","BSTAR":"0.00072440000000","EPHEMERIS_TYPE":"0","MEAN_ANOMALY":"174.4781","OBJECT_NAME":"STARLINK-3236","SEMIMAJOR_AXIS":"6917.966","NORAD_CAT_ID":"49750","COUNTRY_CODE":"US","ELEMENT_SET_NO":"999","OBJECT_ID":"2021-115AC","DECAY_DATE":null,"EPOCH":"2023-03-25T21:10:00.753024","ARG_OF_PERICENTER":"185.6200","MEAN_MOTION_DDOT":"0.0000000000000","LAUNCH_DATE":"2021-12-02","TLE_LINE2":"2 49750  53.2150 316.5751 0000966 185.6200 174.4781 15.08811895 73631","GP_ID":"228847829","INCLINATION":"53.2150","RA_OF_ASC_NODE":"316.5751","TLE_LINE1":"1 49750U 21115AC  23084.88195316  .00011251  00000-0  72440-3 0  9993","REF_FRAME":"TEME","PERIOD":"95.439","ECCENTRICITY":"0.00009660","APOAPSIS":"540.500","OBJECT_TYPE":"PAYLOAD","MEAN_MOTION_DOT":"0.00011251"},{"OBJECT_ID":"2021-115AD","ELEMENT_SET_NO":"999","ARG_OF_PERICENTER":"82.0886","EPOCH":"2023-03-25T22:24:12.402432","DECAY_DATE":null,"MEAN_MOTION_DDOT":"0.0000000000000","TLE_LINE2":"2 49751  53.2161 316.3050 0001193  82.0886 278.0241 15.08789911 72530","LAUNCH_DATE":"2021-12-02","RA_OF_ASC_NODE":"316.3050","INCLINATION":"53.2161","TLE_LINE1":"1 49751U 21115AD  23084.93347688  .00022194  00000-0  14101-2 0  9998","GP_ID":"228870486","REF_FRAME":"TEME","APOAPSIS":"540.724","ECCENTRICITY":"0.00011930","PERIOD":"95.441","MEAN_MOTION_DOT":"0.00022194","OBJECT_TYPE":"PAYLOAD","MEAN_MOTION":"15.08789911","CLASSIFICATION_TYPE":"U","PERIAPSIS":"539.073","RCS_SIZE":"LARGE","FILE":"3871104","CENTER_NAME":"EARTH","SITE":"AFETR","REV_AT_EPOCH":"7253","BSTAR":"0.00141010000000","MEAN_ELEMENT_THEORY":"SGP4","TIME_SYSTEM":"UTC","MEAN_ANOMALY":"278.0241","OBJECT_NAME":"STARLINK-3229","EPHEMERIS_TYPE":"0","NORAD_CAT_ID":"49751","SEMIMAJOR_AXIS":"6918.033","COUNTRY_CODE":"US"},{"CENTER_NAME":"EARTH","FILE":"3871045","RCS_SIZE":"LARGE","PERIAPSIS":"539.024","MEAN_MOTION":"15.08798643","CLASSIFICATION_TYPE":"U","MEAN_ELEMENT_THEORY":"SGP4","TIME_SYSTEM":"UTC","BSTAR":"0.00073712000000","REV_AT_EPOCH":"7377","SITE":"AFETR","EPHEMERIS_TYPE":"0","OBJECT_NAME":"STARLINK-3209","MEAN_ANOMALY":"269.3611","COUNTRY_CODE":"US","SEMIMAJOR_AXIS":"6918.007","NORAD_CAT_ID":"49752","DECAY_DATE":null,"ARG_OF_PERICENTER":"90.7522","EPOCH":"2023-03-25T21:31:09.329664","ELEMENT_SET_NO":"999","OBJECT_ID":"2021-115AE","LAUNCH_DATE":"2021-12-02","TLE_LINE2":"2 49752  53.2143 306.4969 0001226  90.7522 269.3611 15.08798643 73773","MEAN_MOTION_DDOT":"0.0000000000000","REF_FRAME":"TEME","GP_ID":"228847626","TLE_LINE1":"1 49752U 21115AE  23084.89663576  .00011450  00000-0  73712-3 0  9998","INCLINATION":"53.2143","RA_OF_ASC_NODE":"306.4969","MEAN_MOTION_DOT":"0.00011450","OBJECT_TYPE":"PAYLOAD","ECCENTRICITY":"0.00012260","PERIOD":"95.440","APOAPSIS":"540.720"},{"OBJECT_TYPE":"PAYLOAD","MEAN_MOTION_DOT":"-0.00014122","APOAPSIS":"540.747","PERIOD":"95.440","ECCENTRICITY":"0.00012560","REF_FRAME":"TEME","INCLINATION":"53.2154","RA_OF_ASC_NODE":"316.2892","TLE_LINE1":"1 49753U 21115AF  23084.94355948 -.00014122  00000-0 -87199-3 0  9991","GP_ID":"228869985","TLE_LINE2":"2 49753  53.2154 316.2892 0001256  92.4969 267.6167 15.08796459 72530","LAUNCH_DATE":"2021-12-02","MEAN_MOTION_DDOT":"0.0000000000000","ARG_OF_PERICENTER":"92.4969","EPOCH":"2023-03-25T22:38:43.539072","DECAY_DATE":null,"OBJECT_ID":"2021-115AF","ELEMENT_SET_NO":"999","COUNTRY_CODE":"US","NORAD_CAT_ID":"49753","SEMIMAJOR_AXIS":"6918.013","MEAN_ANOMALY":"267.6167","OBJECT_NAME":"STARLINK-3200","EPHEMERIS_TYPE":"0","BSTAR":"-0.00087199000000","TIME_SYSTEM":"UTC","MEAN_ELEMENT_THEORY":"SGP4","SITE":"AFETR","REV_AT_EPOCH":"7253","CENTER_NAME":"EARTH","MEAN_MOTION":"15.08796459","CLASSIFICATION_TYPE":"U","PERIAPSIS":"539.010","FILE":"3871104","RCS_SIZE":"LARGE"},{"ARG_OF_PERICENTER":"105.1989","EPOCH":"2023-03-25T21:36:28.008288","DECAY_DATE":null,"OBJECT_ID":"2021-115AG","ELEMENT_SET_NO":"999","TLE_LINE2":"2 49754  53.2158 306.5894 0001170 105.1989 254.9133 15.08830631 73778","LAUNCH_DATE":"2021-12-02","MEAN_MOTION_DDOT":"0.0000000000000","REF_FRAME":"TEME","RA_OF_ASC_NODE":"306.5894","INCLINATION":"53.2158","TLE_LINE1":"1 49754U 21115AG  23084.90032417 -.00007905  00000-0 -47927-3 0  9997","GP_ID":"228848377","MEAN_MOTION_DOT":"-0.00007905","OBJECT_TYPE":"PAYLOAD","APOAPSIS":"540.583","PERIOD":"95.438","ECCENTRICITY":"0.00011700","CENTER_NAME":"EARTH","CLASSIFICATION_TYPE":"U","MEAN_MOTION":"15.08830631","PERIAPSIS":"538.965","RCS_SIZE":"LARGE","FILE":"3871060","BSTAR":"-0.00047927000000","MEAN_ELEMENT_THEORY":"SGP4","TIME_SYSTEM":"UTC","SITE":"AFETR","REV_AT_EPOCH":"7377","MEAN_ANOMALY":"254.9133","OBJECT_NAME":"STARLINK-3193","EPHEMERIS_TYPE":"0","COUNTRY_CODE":"US","NORAD_CAT_ID":"49754","SEMIMAJOR_AXIS":"6917.909"},{"EPHEMERIS_TYPE":"0","MEAN_ANOMALY":"297.1477","OBJECT_NAME":"STARLINK-3210","COUNTRY_CODE":"US","NORAD_CAT_ID":"49755","SEMIMAJOR_AXIS":"6918.027","CENTER_NAME":"EARTH","PERIAPSIS":"539.196","RCS_SIZE":"LARGE","FILE":"3871046","CLASSIFICATION_TYPE":"U","MEAN_MOTION":"15.08792148","TIME_SYSTEM":"UTC","MEAN_ELEMENT_THEORY":"SGP4","BSTAR":"0.00041020000000","SITE":"AFETR","REV_AT_EPOCH":"7363","REF_FRAME":"TEME","GP_ID":"228847843","RA_OF_ASC_NODE":"316.5528","INCLINATION":"53.2161","TLE_LINE1":"1 49755U 21115AH  23084.88468000  .00006238  00000-0  41020-3 0  9990","MEAN_MOTION_DOT":"0.00006238","OBJECT_TYPE":"PAYLOAD","ECCENTRICITY":"0.00010060","PERIOD":"95.441","APOAPSIS":"540.588","DECAY_DATE":null,"EPOCH":"2023-03-25T21:13:56.352000","ARG_OF_PERICENTER":"62.9617","ELEMENT_SET_NO":"999","OBJECT_ID":"2021-115AH","LAUNCH_DATE":"2021-12-02","TLE_LINE2":"2 49755  53.2161 316.5528 0001006  62.9617 297.1477 15.08792148 73639","MEAN_MOTION_DDOT":"0.0000000000000"}];
